satname,norad_id,inclination_deg,eccentricity,mean_motion_rev_per_day,perigee_km,apogee_km,l1,l2
STARLINK-1452,45669,53.0335,0.0006052,15.40189876,441.41874585723326,449.678134714155,1 45669U 20035N   26038.91667824  .00090758  00000+0  22090-2 0  9995,2 45669  53.0335 163.0573 0006052 288.9297 293.3948 15.40189876  5927
STARLINK-1453,45670,53.0493,0.0005263,15.46429638,423.59896172571825,430.76223903187747,1 45670U 20035P   26038.91667824  .00091124  00000+0  17978-2 0  9994,2 45670  53.0493 156.0579 0005263 276.4301 151.3550 15.46429638  5687
STARLINK-1454,45671,53.0527,0.0003902,15.45200827,428.1312031096122,433.4448882152474,1 45671U 20035Q   26038.91667824  .00162190  00000+0  33009-2 0  9990,2 45671  53.0527 195.2810 0003902 298.4773  28.9215 15.45200827  5823
STARLINK-1456,45673,53.0501,0.0003594,15.43506907,433.3198488531589,438.21768431818145,1 45673U 20035S   26038.91667824  .00129291  00000+0  28007-2 0  9999,2 45673  53.0501 188.6622 0003594 195.2776 197.1207 15.43506907  5925
STARLINK-1457,45674,53.048,0.0006056,15.69672301,355.7541170657505,363.915148307261,1 45674U 20035T   26038.91667824  .00183895  00000+0  14904-2 0  9991,2 45674  53.0480 170.6271 0006056 325.9052 142.8235 15.69672301  5982
STARLINK-1458,45675,53.0534,0.0001841,15.38787514,448.4366155543512,450.9506227883312,1 45675U 20035U   26038.91667824  .00142681  00000+0  36073-2 0  9991,2 45675  53.0534 196.4343 0001841 332.2261  66.7828 15.38787514  5733
STARLINK-1460,45676,53.0555,0.00014,15.06400095,546.2417180196262,548.1808155343242,1 45676U 20035V   26038.71245826  .00003709  00000+0  26776-3 0  9991,2 45676  53.0555 201.1915 0001400  83.1847 276.9301 15.06400095314172
STARLINK-1392,45677,53.0555,0.0001467,15.06398922,546.1989127368524,548.2308109731212,1 45677U 20035W   26038.72352191  .00003212  00000+0  23442-3 0  9993,2 45677  53.0555 201.1421 0001467  83.8717 276.2439 15.06398922314216
STARLINK-1394,45679,53.0529,0.0006181,15.42105919,435.6808270868187,444.10927831036497,1 45679U 20035Y   26038.68989057 -.00103759  00000+0 -24093-2 0  9998,2 45679  53.0529 179.7051 0006181 293.9581  66.0776 15.42105919314513
STARLINK-1402,45685,53.0485,0.0004727,15.40425976,441.62595499885174,448.076408025654,1 45685U 20035AE  26038.91667824  .00050645  00000+0  12341-2 0  9992,2 45685  53.0485 164.6600 0004727 175.7865 192.8802 15.40425976  5915
STARLINK-1404,45686,53.1571,0.0001316,15.29347551,476.8592744210582,478.6637469090656,1 45686U 20035AF  26038.71359161  .00008129  00000+0  29380-3 0  9995,2 45686  53.1571 188.9053 0001316  64.6968 295.4169 15.29347551314384
STARLINK-1413,45689,53.1625,0.000212,15.30218348,473.70738712131333,476.61318517063955,1 45689U 20035AJ  26038.72268238  .00009203  00000+0  32228-3 0  9992,2 45689  53.1625 188.7699 0002120  49.4378 310.6807 15.30218348314305
STARLINK-1417,45693,53.0522,0.000594,15.10785556,529.697292948531,537.9086776510667,1 45693U 20035AN  26038.71314031  .00052818  00000+0  31385-2 0  9991,2 45693  53.0522 189.9822 0005940 149.9994 210.1338 15.10785556314366
STARLINK-1420,45695,53.0548,0.0001491,15.47470542,423.1143151461747,425.14275072809687,1 45695U 20035AQ  26038.62611411  .00059850  00000+0  11470-2 0  9991,2 45695  53.0548 166.6075 0001491  16.1370 343.9684 15.47470542314699
STARLINK-1422,45696,53.1563,0.0001306,15.29344363,476.8756567296723,478.6664199092811,1 45696U 20035AR  26038.72850394  .00011088  00000+0  39612-3 0  9998,2 45696  53.1563 188.7306 0001306  78.4845 281.6302 15.29344363314385
STARLINK-1351,45697,53.0533,7.55e-05,15.48072532,421.8515423261251,422.8784181251385,1 45697U 20035AS  26038.91667824  .01330441  00000+0  22469-1 0  9992,2 45697  53.0533 164.4895 0000755  89.2978 192.6973 15.48072532  5851
STARLINK-1398,45699,53.0416,0.0004723,15.78832928,330.57618889075366,336.9162337721764,1 45699U 20035AU  26038.91667824  .00141887  00000+0  77930-3 0  9992,2 45699  53.0416  90.0400 0004723 346.8103  73.2225 15.78832928  6019
STARLINK-1400,45700,53.0523,0.0003676,15.45243194,428.1606733299823,433.1665035225924,1 45700U 20035AV  26038.91667824  .00068959  00000+0  14235-2 0  9991,2 45700  53.0523 165.3252 0003676 343.7757   2.6743 15.45243194  5823
STARLINK-1403,45701,53.0558,0.0001321,15.06397881,546.3032129732801,548.1328917781184,1 45701U 20035AW  26038.68573828  .00000940  00000+0  82026-4 0  9997,2 45701  53.0558 171.3131 0001321  87.6800 272.4341 15.06397881314625
STARLINK-1407,45703,53.036,0.0011428,15.54716659,395.22693538848216,410.7258481567169,1 45703U 20035AY  26038.40023057  .00133981  00000+0  19525-2 0  9997,2 45703  53.0360 102.6760 0011428 356.6345   3.4586 15.54716659315574
STARLINK-1411,45706,53.0464,0.0003886,15.5662196,394.80889629620833,400.0748762066032,1 45706U 20035BB  26038.50113203  .00101235  00000+0  13857-2 0  9993,2 45706  53.0464 128.3030 0003886   7.1300 352.9765 15.56621960315219
STARLINK-1423,45710,53.0527,0.0002669,15.47179065,423.1670841689138,426.79858953782605,1 45710U 20035BF  26038.91667824  .00101481  00000+0  19482-2 0  9999,2 45710  53.0527 164.8296 0002669   1.6227 298.9958 15.47179065  5839
STARLINK-1433,45711,53.0525,0.0003192,15.49226412,416.81819543709935,421.1574799334785,1 45711U 20035BG  26038.91667824  .00063897  00000+0  11506-2 0  9997,2 45711  53.0525 164.3166 0003192 355.2549 305.2169 15.49226412  5833
STARLINK-1434,45712,53.0508,0.0001134,15.23720405,493.8511282624031,495.4098719314252,1 45712U 20035BH  26038.62120794  .00087863  00000+0  35815-2 0  9994,2 45712  53.0508 158.9761 0001134 359.8665   0.2330 15.23720405314803
STARLINK-1465,45731,53.0547,0.0002981,15.4512501,428.98097281176524,433.0405867180598,1 45731U 20038B   26038.91667824  .00140072  00000+0  28677-2 0  9990,2 45731  53.0547   5.4862 0002981 109.8569 135.7224 15.45125010  5787
STARLINK-1471,45735,53.0471,0.0004175,15.47190028,422.11041090150775,427.79098913102007,1 45735U 20038F   26038.91667824  .00106545  00000+0  20425-2 0  9994,2 45735  53.0471 284.4695 0004175 125.1607  63.7877 15.47190028  5812
STARLINK-1474,45738,53.0233,0.0005312,16.00795763,268.68117472724316,275.7465074608217,1 45738U 20038J   26038.75240345  .00481353  11257-3  87984-3 0  9991,2 45738  53.0233 216.4280 0005312 264.6695  95.3728 16.00795763313844
STARLINK-1480,45741,53.0541,0.0010918,15.43627489,427.9748770525475,442.85294682385575,1 45741U 20038M   26038.91667824  .00100718  00000+0  21792-2 0  9995,2 45741  53.0541 359.2129 0010918  75.7012 235.9509 15.43627489  5921
STARLINK-1500,45744,53.0378,0.0004357,15.3305132,463.73243792701123,469.69704173309947,1 45744U 20038Q   26038.05378416  .00029726  00000+0  92571-3 0  9992,2 45744  53.0378 336.2612 0004357 123.1449 236.9970 15.33051320312115
STARLINK-1504,45746,53.0238,0.0004441,15.5112677,410.41891582108474,416.4511901185324,1 45746U 20038S   26038.93751965  .00031105  00000+0  52984-3 0  9993,2 45746  53.0238 285.4894 0004441 111.3611 248.7871 15.51126770312891
STARLINK-1506,45747,53.075,0.0004792,15.25332225,486.4968974079593,493.079116734737,1 45747U 20038T   26038.26440298  .00012499  00000+0  50193-3 0  9999,2 45747  53.0750 342.9881 0004792 133.2348 226.9050 15.25332225312044
STARLINK-1464,45751,53.0544,0.0004374,15.40801817,440.7577123982319,446.7254917993487,1 45751U 20038X   26038.91667824  .00078104  00000+0  18679-2 0  9999,2 45751  53.0544 345.8492 0004374 106.4772  43.1941 15.40801817  5782
STARLINK-1477,45754,53.0556,0.0001304,15.1260176,527.3684343027398,529.1696249952711,1 45754U 20038AA  26038.25548520  .00067316  00000+0  37926-2 0  9999,2 45754  53.0556 351.0797 0001304 102.8391 257.2746 15.12601760311923
STARLINK-1478,45755,53.0556,0.0007706,15.49420005,413.18421786157614,423.6590740467209,1 45755U 20038AB  26038.91667824  .00077110  00000+0  13740-2 0  9993,2 45755  53.0556 341.1870 0007706 103.5895  81.5022 15.49420005  5909
STARLINK-1484,45756,53.0039,0.0002623,15.85260718,313.8349540412255,317.3464836025187,1 45756U 20038AC  26038.91667824  .00279548  00000+0  11181-2 0  9990,2 45756  53.0039 208.9386 0002623 253.0731 194.0897 15.85260718  6040
STARLINK-1493,45759,53.0551,0.0001843,15.42823531,436.5245387493587,439.03688601814247,1 45759U 20038AF  26038.90229230  .00104237  00000+0  23201-2 0  9995,2 45759  53.0551 346.5250 0001843 106.0991 254.0217 15.42823531312032
STARLINK-1494,45760,53.0504,0.0002034,15.68256392,362.51830453494404,365.26096096914625,1 45760U 20038AG  26038.91095314  .00074057  00000+0  64817-3 0  9997,2 45760  53.0504 299.0247 0002034 156.4510 203.6599 15.68256392312710
STARLINK-1502,45764,53.0551,0.0001752,15.35867941,457.14593420857545,459.541437040818,1 45764U 20038AL  26038.91667824  .00678571  00000+0  17751-1 0  9996,2 45764  53.0551 347.5779 0001752  78.3250 331.6329 15.35867941  5785
STARLINK-1470,45772,53.0508,0.0001693,15.25276496,488.792526862404,491.1180629134542,1 45772U 20038AU  26038.95055766  .00024003  00000+0  95188-3 0  9992,2 45772  53.0508 312.0448 0001693  98.7438 261.3751 15.25276496312534
STARLINK-1482,45773,53.1489,0.0001526,15.27749561,481.4944768400401,483.5883558927153,1 45773U 20038AV  26038.91667824  .01387572  00000+0  46467-1 0  9991,2 45773  53.1489 329.2407 0001526  92.6510  50.6303 15.27749561  5832
STARLINK-1496,45780,53.0561,0.0009538,15.4315222,430.3127256981925,443.3129239840591,1 45780U 20038BC  26038.95826638  .00089723  00000+0  19774-2 0  9991,2 45780  53.0561 319.4945 0009538 106.4179 253.7876 15.43152220312418
STARLINK-1497,45781,53.0195,0.0006505,16.13591973,232.70469666665758,241.31100011441413,1 45781U 20038BD  26039.05857441  .01362434  13449-2  11247-2 0  9995,2 45781  53.0195 226.5153 0006505 263.3658  96.6636 16.13591973313731
STARLINK-1513,45786,53.1491,0.0002117,15.27968081,480.4350207330572,483.3395550165433,1 45786U 20038BJ  26038.91667824  .01593506  00000+0  52349-1 0  9997,2 45786  53.1491 329.3755 0002117  93.5819 356.1143 15.27968081  5785
